NORAD_CAT_ID,OBJECT_NAME,OBJECT_TYPE,EPOCH,MEAN_MOTION,ECCENTRICITY,INCLINATION,RA_OF_ASC_NODE,ARG_OF_PERICENTER,MEAN_ANOMALY,BSTAR,MEAN_MOTION_DOT,MEAN_MOTION_DDOT,TLE_LINE0,TLE_LINE1,TLE_LINE2,SEMIMAJOR_AXIS,PERIOD,APOGEE,PERIGEE,DECAYED
52305.0,STARLINK-3724,PAYLOAD,2023-12-24 17:19:48,15.08815014,0.0001125,53.2165,117.3557,93.2662,266.8459,-0.00016839,-2.965e-05,0.0,0 STARLINK-3724,1 52305U 22041AW  23358.72208839 -.00002965  00000-0 -16839-3 0  9998,2 52305  53.2165 117.3557 0001125  93.2662 266.8459 15.08815014 94056,6917.957,95.439,540.6,539.043,0.0
52305.0,STARLINK-3724,PAYLOAD,2023-12-25 12:24:25,15.08826341,0.0001129,53.2163,113.7887,74.355,285.7566,3.6112e-05,2.87e-06,0.0,0 STARLINK-3724,1 52305U 22041AW  23359.51696499  .00000287  00000-0  36112-4 0  9999,2 52305  53.2163 113.7887 0001129  74.3550 285.7566 15.08826341 94177,6917.922,95.438,540.568,539.006,0.0
52305.0,STARLINK-3724,PAYLOAD,2023-12-25 15:35:12,15.08827316,0.0001107,53.2171,113.193,87.4008,272.7111,1.4722e-05,-5.4e-07,0.0,0 STARLINK-3724,1 52305U 22041AW  23359.64944674 -.00000054  00000-0  14722-4 0  9990,2 52305  53.2171 113.1930 0001107  87.4008 272.7111 15.08827316 92979,6917.919,95.438,540.55,539.018,0.0
52305.0,STARLINK-3724,PAYLOAD,2023-12-26 07:29:01,15.08833493,0.0001205,53.2164,110.2194,75.2401,284.8724,0.00036634,5.546e-05,0.0,0 STARLINK-3724,1 52305U 22041AW  23360.31182829  .00005546  00000-0  36634-3 0  9997,2 52305  53.2164 110.2194 0001205  75.2401 284.8724 15.08833493 94296,6917.9,95.438,540.599,538.932,0.0
52305.0,STARLINK-3724,PAYLOAD,2023-12-26 13:50:32,15.08856731,0.0001224,53.2166,109.0258,118.3468,241.7647,0.00046867,7.182e-05,0.0,0 STARLINK-3724,1 52305U 22041AW  23360.57676999  .00007182  00000-0  46867-3 0  9998,2 52305  53.2166 109.0258 0001224 118.3468 241.7647 15.08856731 93114,6917.829,95.436,540.541,538.848,0.0
52305.0,STARLINK-3724,PAYLOAD,2023-12-27 12:05:58,15.08848213,0.0001886,53.2161,104.8617,133.5097,226.6052,7.1786e-06,-1.74e-06,0.0,0 STARLINK-3724,1 52305U 22041AW  23361.50414702 -.00000174  00000-0  71786-5 0  9999,2 52305  53.2161 104.8617 0001886 133.5097 226.6052 15.08848213 94470,6917.855,95.437,541.025,538.416,0.0
52305.0,STARLINK-3724,PAYLOAD,2023-12-27 13:41:21,15.08844532,0.0001263,53.2167,104.5685,110.1134,249.9994,4.5003e-05,4.29e-06,0.0,0 STARLINK-3724,1 52305U 22041AW  23361.57038907  .00000429  00000-0  45003-4 0  9999,2 52305  53.2167 104.5685 0001263 110.1134 249.9994 15.08844532 93269,6917.867,95.437,540.605,538.858,0.0
52305.0,STARLINK-3724,PAYLOAD,2023-12-27 16:52:07,15.08846577,0.0001295,53.2163,103.9755,91.8501,268.2639,-7.0139e-06,-4e-06,0.0,0 STARLINK-3724,1 52305U 22041AW  23361.70286987 -.00000400  00000-0 -70139-5 0  9997,2 52305  53.2163 103.9755 0001295  91.8501 268.2639 15.08846577 93287,6917.86,95.437,540.621,538.829,0.0
52305.0,STARLINK-3724,PAYLOAD,2023-12-28 13:32:08,15.08852661,0.0001495,53.2165,100.1077,95.3108,264.8054,-0.00012468,-2.272e-05,0.0,0 STARLINK-3724,1 52305U 22041AW  23362.56398772 -.00002272  00000-0 -12468-3 0  9996,2 52305  53.2165 100.1077 0001495  95.3108 264.8054 15.08852661 93418,6917.842,95.437,540.741,538.672,0.0
52305.0,STARLINK-3724,PAYLOAD,2023-12-29 11:47:32,15.08832719,0.0001754,53.2165,95.9448,92.8638,267.2555,9.4346e-05,1.213e-05,0.0,0 STARLINK-3724,1 52305U 22041AW  23363.49135395  .00001213  00000-0  94346-4 0  9997,2 52305  53.2165  95.9448 0001754  92.8638 267.2555 15.08832719 94774,6917.903,95.438,540.981,538.554,0.0
52305.0,STARLINK-3724,PAYLOAD,2023-12-29 13:22:55,15.08834597,0.000176,53.2165,95.6471,94.8852,265.2341,0.00010474,1.379e-05,0.0,0 STARLINK-3724,1 52305U 22041AW  23363.55759247  .00001379  00000-0  10474-3 0  9994,2 52305  53.2165  95.6471 0001760  94.8852 265.2341 15.08834597 93567,6917.897,95.438,540.979,538.544,0.0
52305.0,STARLINK-3724,PAYLOAD,2023-12-30 11:38:20,15.0883721,0.000172,53.217,91.4841,96.9531,263.1657,3.1068e-05,2.06e-06,0.0,0 STARLINK-3724,1 52305U 22041AW  23364.48495702  .00000206  00000-0  31068-4 0  9991,2 52305  53.2170  91.4841 0001720  96.9531 263.1657 15.08837210 93709,6917.889,95.438,540.944,538.564,0.0
52305.0,STARLINK-3724,PAYLOAD,2023-12-31 11:29:07,15.08834156,0.000149,53.2174,87.0243,87.9389,272.1774,5.6559e-05,6.12e-06,0.0,0 STARLINK-3724,1 52305U 22041AW  23365.47856149  .00000612  00000-0  56559-4 0  9990,2 52305  53.2174  87.0243 0001490  87.9389 272.1774 15.08834156 95073,6917.898,95.438,540.794,538.732,0.0
52305.0,STARLINK-3724,PAYLOAD,2023-12-31 14:39:53,15.08837548,0.0001649,53.2169,86.4295,92.9011,267.217,7.0281e-05,8.31e-06,0.0,0 STARLINK-3724,1 52305U 22041AW  23365.61103912  .00000831  00000-0  70281-4 0  9990,2 52305  53.2169  86.4295 0001649  92.9011 267.2170 15.08837548 93870,6917.888,95.438,540.894,538.612,0.0
52305.0,STARLINK-3724,PAYLOAD,2024-01-01 12:55:17,15.08840677,0.0001622,53.2175,82.2683,85.3944,274.7233,8.7051e-05,1.098e-05,0.0,0 STARLINK-3724,1 52305U 22041AW  24001.53839756  .00001098  00000-0  87051-4 0  9990,2 52305  53.2175  82.2683 0001622  85.3944 274.7233 15.08840677 94011,6917.878,95.438,540.865,538.621,0.0
52305.0,STARLINK-3724,PAYLOAD,2024-01-02 11:10:41,15.08843832,0.0001604,53.2173,78.1051,85.792,274.3255,5.1662e-05,5.34e-06,0.0,0 STARLINK-3724,1 52305U 22041AW  24002.46575642  .00000534  00000-0  51662-4 0  9997,2 52305  53.2173  78.1051 0001604  85.7920 274.3255 15.08843832 94151,6917.869,95.437,540.843,538.624,0.0
52305.0,STARLINK-3724,PAYLOAD,2024-01-03 11:01:29,15.08835148,0.0001652,53.2173,73.6452,78.0975,282.0203,-4.4009e-05,-9.88e-06,0.0,0 STARLINK-3724,1 52305U 22041AW  24003.45936564 -.00000988  00000-0 -44009-4 0  9993,2 52305  53.2173  73.6452 0001652  78.0975 282.0203 15.08835148 95526,6917.895,95.438,540.903,538.617,0.0
52305.0,STARLINK-3724,PAYLOAD,2024-01-04 04:30:43,15.08844247,0.0001442,53.2159,70.37,87.937,272.1788,-2.0663e-05,-6.17e-06,0.0,0 STARLINK-3724,1 52305U 22041AW  24004.18799878 -.00000617  00000-0 -20663-4 0  9998,2 52305  53.2159  70.3700 0001442  87.9370 272.1788 15.08844247 95635,6917.867,95.437,540.73,538.735,0.0
52305.0,STARLINK-3724,PAYLOAD,2024-01-04 10:52:15,15.08848715,0.0001436,53.2167,69.1826,80.1378,279.9776,4.5032e-05,4.29e-06,0.0,0 STARLINK-3724,1 52305U 22041AW  24004.45295295  .00000429  00000-0  45032-4 0  9998,2 52305  53.2167  69.1826 0001436  80.1378 279.9776 15.08848715 94450,6917.854,95.437,540.712,538.725,0.0
52305.0,STARLINK-3724,PAYLOAD,2024-01-05 10:43:03,15.08830714,0.0001232,53.2171,64.7206,90.2634,269.8499,-1.3461e-05,-5.02e-06,0.0,0 STARLINK-3724,1 52305U 22041AW  24005.44656881 -.00000502  00000-0 -13461-4 0  9995,2 52305  53.2171  64.7206 0001232  90.2634 269.8499 15.08830714 95821,6917.909,95.438,540.626,538.921,0.0
52305.0,STARLINK-3724,PAYLOAD,2024-01-06 04:12:17,15.08841392,0.000152,53.2186,61.4543,111.7834,248.332,2.7364e-05,1.48e-06,0.0,0 STARLINK-3724,1 52305U 22041AW  24006.17520199  .00000148  00000-0  27364-4 0  9999,2 52305  53.2186  61.4543 0001520 111.7834 248.3320 15.08841392 95937,6917.876,95.437,540.793,538.69,0.0
52305.0,STARLINK-3724,PAYLOAD,2024-01-06 10:33:49,15.08849788,0.0001402,53.2178,60.2646,87.9561,272.1592,9.7864e-05,1.27e-05,0.0,0 STARLINK-3724,1 52305U 22041AW  24006.44015523  .00001270  00000-0  97864-4 0  9998,2 52305  53.2178  60.2646 0001402  87.9561 272.1592 15.08849788 95976,6917.85,95.437,540.685,538.746,0.0
52305.0,STARLINK-3724,PAYLOAD,2024-01-06 23:16:55,15.08837234,0.0001424,53.2182,57.8864,102.7657,257.3495,8.2332e-05,1.023e-05,0.0,0 STARLINK-3724,1 52305U 22041AW  24006.97008300  .00001023  00000-0  82332-4 0  9991,2 52305  53.2182  57.8864 0001424 102.7657 257.3495 15.08837234 96051,6917.889,95.438,540.739,538.769,0.0
52305.0,STARLINK-3724,PAYLOAD,2024-01-07 12:00:00,15.08840409,0.0001304,53.2172,55.5041,93.7751,266.339,7.7301e-05,9.43e-06,0.0,0 STARLINK-3724,1 52305U 22041AW  24007.50000200  .00000943  00000-0  77301-4 0  9992,2 52305  53.2172  55.5041 0001304  93.7751 266.3390 15.08840409 94918,6917.879,95.438,540.646,538.842,0.0
52305.0,STARLINK-3724,PAYLOAD,2024-01-08 11:50:47,15.08843882,0.0001498,53.2179,51.0397,86.0709,274.0454,-2.5557e-05,-6.95e-06,0.0,0 STARLINK-3724,1 52305U 22041AW  24008.49360444 -.00000695  00000-0 -25557-4 0  9992,2 52305  53.2179  51.0397 0001498  86.0709 274.0454 15.08843882 96289,6917.869,95.437,540.77,538.697,0.0
52305.0,STARLINK-3724,PAYLOAD,2024-01-09 11:41:33,15.08848522,0.0001696,53.2186,46.5765,79.8829,280.2355,8.3463e-05,1.041e-05,0.0,0 STARLINK-3724,1 52305U 22041AW  24009.48719846  .00001041  00000-0  83463-4 0  9990,2 52305  53.2186  46.5765 0001696  79.8829 280.2355 15.08848522 95215,6917.854,95.437,540.893,538.546,0.0
52305.0,STARLINK-3724,PAYLOAD,2024-01-10 02:00:03,15.0883683,0.0001538,53.2182,43.9071,83.2786,276.8381,7.4525e-06,-1.69e-06,0.0,0 STARLINK-3724,1 52305U 22041AW  24010.08336989 -.00000169  00000-0  74525-5 0  9992,2 52305  53.2182  43.9071 0001538  83.2786 276.8381 15.08836830 96522,6917.89,95.438,540.819,538.691,0.0
52305.0,STARLINK-3724,PAYLOAD,2024-01-10 08:21:35,15.08840002,0.0001752,53.2182,42.7163,103.2078,256.911,2.7482e-05,1.49e-06,0.0,0 STARLINK-3724,1 52305U 22041AW  24010.34832621  .00000149  00000-0  27482-4 0  9991,2 52305  53.2182  42.7163 0001752 103.2078 256.9110 15.08840002 95340,6917.88,95.438,540.957,538.533,0.0
52305.0,STARLINK-3724,PAYLOAD,2024-01-10 11:32:21,15.08843013,0.0001768,53.2184,42.1216,92.708,267.4114,5.8888e-05,6.49e-06,0.0,0 STARLINK-3724,1 52305U 22041AW  24010.48080440  .00000649  00000-0  58888-4 0  9999,2 52305  53.2184  42.1216 0001768  92.7080 267.4114 15.08843013 96580,6917.871,95.437,540.959,538.513,0.0
52305.0,STARLINK-3724,PAYLOAD,2024-01-11 11:23:07,15.08854523,0.0001736,53.2183,37.659,97.008,263.111,5.9256e-05,6.55e-06,0.0,0 STARLINK-3724,1 52305U 22041AW  24011.47439511  .00000655  00000-0  59256-4 0  9993,2 52305  53.2183  37.6590 0001736  97.0080 263.1110 15.08854523 96730,6917.836,95.437,540.902,538.5,0.0
